{
    "type": "FeatureCollection",
    "name": "POINTS-PERM",
    "crs": {
        "type": "name",
        "properties": {
            "name": "urn:ogc:def:crs:OGC:1.3:CRS84"
        }
    },
    "features": [
        {
            "type": "Feature",
            "properties": {
                "fid": 1,
                "id": 1,
                "osm_id": null,
                "name": "Мишка — «Легенда о пермском медведе»",
                "description": "Знаменитая бронзовая скульптура шагающего медведя и неофициальный символ Перми. Существует поверье, что если потереть ему нос и прошептать желание на ушко, оно исполнится."
            },
            "geometry": {
                "type": "Point",
                "coordinates": [56.2364213, 58.010549]
            }
        },
        {
            "type": "Feature",
            "properties": {
                "fid": 2,
                "id": 2,
                "osm_id": null,
                "name": "Памятник «Пермяк — солёные уши»",
                "description": "По основной версии, название связано с солеварением: рабочие носили тяжёлые кульки с солью, которая попадала на уши, вызывая покраснение и опухание."
            },
            "geometry": {
                "type": "Point",
                "coordinates": [56.240365468631133, 58.00970361309512]
            }
        },
        {
            "type": "Feature",
            "properties": {
                "fid": 3,
                "id": 3,
                "osm_id": null,
                "name": "Скульптуры мишек",
                "description": "Десять небольших скульптур медведей на пермской набережной возле Речного вокзала установили в июне 2024 года в качестве подарка городу от «Сбера»."
            },
            "geometry": {
                "type": "Point",
                "coordinates": [56.2433301, 58.019201500000015]
            }
        },
        {
            "type": "Feature",
            "properties": {
                "fid": 4,
                "id": 4,
                "osm_id": null,
                "name": "Пермская государственная художественная галерея",
                "description": "Знаменитая коллекция пермской деревянной скульптуры («пермские боги») и строгановское лицевое золотное шитьё."
            },
            "geometry": {
                "type": "Point",
                "coordinates": [56.25819489209141, 58.021233666758789]
            }
        },
        {
            "type": "Feature",
            "properties": {
                "fid": 5,
                "id": 5,
                "osm_id": null,
                "name": "Башня смерти",
                "description": "Из-за расположения здесь силовых ведомств в народной молве возникло много мрачных мифов: о тайных расстрелах, замурованных заключённых и прыжках арестованных с башни."
            },
            "geometry": {
                "type": "Point",
                "coordinates": [56.253709108770707, 57.994967292675334]
            }
        },
        {
            "type": "Feature",
            "properties": {
                "fid": 6,
                "id": 6,
                "osm_id": null,
                "name": "Дворик ТЮЗ",
                "description": "Уютное сказочное пространство с граффити (Арлекин, Пьеро, часы), скамейками в виде клавиш пианино и белой ротондой с фонтаном."
            },
            "geometry": {
                "type": "Point",
                "coordinates": [56.246866359542274, 58.01181761223954]
            }
        },
        {
            "type": "Feature",
            "properties": {
                "fid": 7,
                "id": 7,
                "osm_id": null,
                "name": "«Счастье не за горами»",
                "description": "На парапете нижней набережной реки Камы возле Речного вокзала."
            },
            "geometry": {
                "type": "Point",
                "coordinates": [56.250669118957141, 58.02114166697001]
            }
        },
        {
            "type": "Feature",
            "properties": {
                "fid": 9,
                "id": 12,
                "osm_id": null,
                "name": "Пермский краеведческий музей",
                "description": "Один из старейших и крупнейших музеев Урала, рассказывающий об истории, природе и культуре Пермского края."
            },
            "geometry": {
                "type": "Point",
                "coordinates": [56.2473324, 58.018399]
            }
        },
        {
            "type": "Feature",
            "properties": {
                "fid": 10,
                "id": 11,
                "osm_id": null,
                "name": "Центральная набережная Перми",
                "description": "Это главное и самое популярное место для прогулок у горожан и туристов на левом берегу реки Камы (протяжённость 4 км)."
            },
            "geometry": {
                "type": "Point",
                "coordinates": [56.229633203331034, 58.01713890451321]
            }
        },
        {
            "type": "Feature",
            "properties": {
                "fid": 11,
                "id": 10,
                "osm_id": null,
                "name": "Музей пермских древностей",
                "description": "Популярная палеонтологическая выставка, рассказывающая об истории Земли и пермском геологическом периоде, который длился 50 миллионов лет."
            },
            "geometry": {
                "type": "Point",
                "coordinates": [56.244902416112957, 58.013927701396007]
            }
        },
        {
            "type": "Feature",
            "properties": {
                "fid": 12,
                "id": 9,
                "osm_id": null,
                "name": "Парк имени М. Горького",
                "description": "Площадью около 10 га. Здесь работают аттракционы для любого возраста (колесо обозрения, двухэтажная карусель, экстремальные аттракционы), детские и молодёжные секторы, кафе."
            },
            "geometry": {
                "type": "Point",
                "coordinates": [56.2493733, 58.0053812]
            }
        },
        {
            "type": "Feature",
            "properties": {
                "fid": 13,
                "id": 13,
                "osm_id": null,
                "name": "Сад имени Я. М. Свердлова",
                "description": "На территории расположены живописный пруд с водопропускным каналом и искусственным водопадом, ротонда, мостики и памятник собаке-водолазу."
            },
            "geometry": {
                "type": "Point",
                "coordinates": [56.298940830983156, 58.030277135706527]
            }
        },
        {
            "type": "Feature",
            "properties": {
                "fid": 14,
                "id": 14,
                "osm_id": null,
                "name": "Тропа к Егошихе",
                "description": "Место основания Перми — здесь находился старый медеплавильный завод, заложенный по указу Василия Татищева."
            },
            "geometry": {
                "type": "Point",
                "coordinates": [56.267808979679607, 58.018263939527777]
            }
        },
        {
            "type": "Feature",
            "properties": {
                "fid": 15,
                "id": 15,
                "osm_id": null,
                "name": "Тропа в Черняевском лесу",
                "description": "Маршрут безопасен, доступен круглый год и подходит для семейных прогулок с детьми. По пути часто можно встретить ручных белок."
            },
            "geometry": {
                "type": "Point",
                "coordinates": [56.177655047368816, 57.992575947228886]
            }
        }
    ]
}